NORAD_CAT_ID,OBJECT_NAME,OBJECT_TYPE,EPOCH,MEAN_MOTION,ECCENTRICITY,INCLINATION,RA_OF_ASC_NODE,ARG_OF_PERICENTER,MEAN_ANOMALY,BSTAR,MEAN_MOTION_DOT,MEAN_MOTION_DDOT,TLE_LINE0,TLE_LINE1,TLE_LINE2,SEMIMAJOR_AXIS,PERIOD,APOGEE,PERIGEE,DECAYED
52465.0,STARLINK-3863,PAYLOAD,2024-06-30 12:10:20,15.08831044,0.0001206,53.2158,299.7609,74.1672,285.9453,-3.258e-05,-8.06e-06,0.0,0 STARLINK-3863,1 52465U 22049Q   24182.50717912 -.00000806  00000-0 -32580-4 0  9996,2 52465  53.2158 299.7609 0001206  74.1672 285.9453 15.08831044119377,6917.908,95.438,540.607,538.938,0.0
52465.0,STARLINK-3863,PAYLOAD,2024-06-30 13:45:43,15.08831947,0.0001201,53.2154,299.4637,72.8191,287.2932,-0.00013776,-2.479e-05,0.0,0 STARLINK-3863,1 52465U 22049Q   24182.57341651 -.00002479  00000-0 -13776-3 0  9999,2 52465  53.2154 299.4637 0001201  72.8191 287.2932 15.08831947119220,6917.905,95.438,540.601,538.939,0.0
52465.0,STARLINK-3863,PAYLOAD,2024-06-30 16:56:29,15.08843953,0.0001114,53.2156,298.8692,99.5363,260.5755,0.00013232,1.819e-05,0.0,0 STARLINK-3863,1 52465U 22049Q   24182.70589217  .00001819  00000-0  13232-3 0  9998,2 52465  53.2156 298.8692 0001114  99.5363 260.5755 15.08843953119403,6917.868,95.437,540.504,538.963,0.0
52465.0,STARLINK-3863,PAYLOAD,2024-07-01 00:53:25,15.08831807,0.0001953,53.215,297.3818,83.7427,276.3787,4.7982e-05,4.75e-06,0.0,0 STARLINK-3863,1 52465U 22049Q   24183.03710266  .00000475  00000-0  47982-4 0  9992,2 52465  53.2150 297.3818 0001953  83.7427 276.3787 15.08831807119458,6917.905,95.438,541.121,538.419,0.0
52465.0,STARLINK-3863,PAYLOAD,2024-07-01 13:36:30,15.08832287,9.21e-05,53.2135,295.0046,85.2237,274.886,0.00027706,4.123e-05,0.0,0 STARLINK-3863,1 52465U 22049Q   24183.56702442  .00004123  00000-0  27706-3 0  9992,2 52465  53.2135 295.0046 0000921  85.2237 274.8860 15.08832287119378,6917.904,95.438,540.406,539.132,0.0
52465.0,STARLINK-3863,PAYLOAD,2024-07-01 15:11:53,15.08843542,0.000121,53.2157,294.7056,88.0159,272.0972,0.0004757,7.292e-05,0.0,0 STARLINK-3863,1 52465U 22049Q   24183.63326094  .00007292  00000-0  47570-3 0  9996,2 52465  53.2157 294.7056 0001210  88.0159 272.0972 15.08843542119386,6917.87,95.437,540.572,538.898,0.0
52465.0,STARLINK-3863,PAYLOAD,2024-07-02 13:27:17,15.08841548,0.0001269,53.2137,290.5451,90.7505,269.3633,0.00019589,2.831e-05,0.0,0 STARLINK-3863,1 52465U 22049Q   24184.56062358  .00002831  00000-0  19589-3 0  9992,2 52465  53.2137 290.5451 0001269  90.7505 269.3633 15.08841548119686,6917.876,95.437,540.619,538.863,0.0
52465.0,STARLINK-3863,PAYLOAD,2024-07-03 13:18:05,15.08840606,0.0001221,53.2153,286.0851,85.6729,274.4403,0.00015876,2.24e-05,0.0,0 STARLINK-3863,1 52465U 22049Q   24185.55422612  .00002240  00000-0  15876-3 0  9994,2 52465  53.2153 286.0851 0001221  85.6729 274.4403 15.08840606119830,6917.879,95.438,540.588,538.899,0.0
52465.0,STARLINK-3863,PAYLOAD,2024-07-04 13:08:52,15.08846254,0.0001416,53.216,281.6234,91.5207,268.5947,0.00019815,2.868e-05,0.0,0 STARLINK-3863,1 52465U 22049Q   24186.54782490  .00002868  00000-0  19815-3 0  9990,2 52465  53.2160 281.6234 0001416  91.5207 268.5947 15.08846254119828,6917.861,95.437,540.706,538.747,0.0
52465.0,STARLINK-3863,PAYLOAD,2024-07-05 12:59:38,15.08853545,0.0001426,53.2167,277.1643,90.8949,269.2207,0.00028643,4.275e-05,0.0,0 STARLINK-3863,1 52465U 22049Q   24187.54142030  .00004275  00000-0  28643-3 0  9994,2 52465  53.2167 277.1643 0001426  90.8949 269.2207 15.08853545120139,6917.839,95.437,540.69,538.718,0.0
52465.0,STARLINK-3863,PAYLOAD,2024-07-06 04:53:30,15.08842995,0.0001486,53.2166,274.1929,99.8129,260.303,3.4441e-05,2.6e-06,0.0,0 STARLINK-3863,1 52465U 22049Q   24188.20382206  .00000260  00000-0  34441-4 0  9993,2 52465  53.2166 274.1929 0001486  99.8129 260.3030 15.08842995120231,6917.871,95.437,540.764,538.708,0.0
52465.0,STARLINK-3863,PAYLOAD,2024-07-06 14:25:49,15.08837507,0.0001372,53.217,272.4062,90.9284,269.1865,9.3955e-06,-1.38e-06,0.0,0 STARLINK-3863,1 52465U 22049Q   24188.60126880 -.00000138  00000-0  93955-5 0  9992,2 52465  53.2170 272.4062 0001372  90.9284 269.1865 15.08837507120138,6917.888,95.438,540.702,538.804,0.0
52465.0,STARLINK-3863,PAYLOAD,2024-07-07 09:30:27,15.08839999,0.0001398,53.2176,268.8383,91.5349,268.5804,-9.0606e-06,-4.32e-06,0.0,0 STARLINK-3863,1 52465U 22049Q   24189.39615002 -.00000432  00000-0 -90606-5 0  9996,2 52465  53.2176 268.8383 0001398  91.5349 268.5804 15.08839999120252,6917.88,95.438,540.713,538.778,0.0
52465.0,STARLINK-3863,PAYLOAD,2024-07-08 12:32:00,15.08841885,0.0001483,53.2175,263.7834,75.9761,284.1396,0.00016845,2.394e-05,0.0,0 STARLINK-3863,1 52465U 22049Q   24190.52222672  .00002394  00000-0  16845-3 0  9998,2 52465  53.2175 263.7834 0001483  75.9761 284.1396 15.08841885120588,6917.875,95.437,540.766,538.714,0.0
52465.0,STARLINK-3863,PAYLOAD,2024-07-08 22:04:19,15.08844662,0.0001523,53.2176,261.9992,80.8006,279.3158,0.00010178,1.332e-05,0.0,0 STARLINK-3863,1 52465U 22049Q   24190.91966659  .00001332  00000-0  10178-3 0  9995,2 52465  53.2176 261.9992 0001523  80.8006 279.3158 15.08844662120483,6917.866,95.437,540.785,538.678,0.0
52465.0,STARLINK-3863,PAYLOAD,2024-07-09 12:22:47,15.08841164,0.0001469,53.217,259.3236,78.8661,281.2496,8.7481e-05,1.105e-05,0.0,0 STARLINK-3863,1 52465U 22049Q   24191.51582936  .00001105  00000-0  87481-4 0  9994,2 52465  53.2170 259.3236 0001469  78.8661 281.2496 15.08841164120731,6917.877,95.437,540.758,538.726,0.0
52465.0,STARLINK-3863,PAYLOAD,2024-07-10 13:48:57,15.08846377,0.0001472,53.217,254.564,87.3793,272.7367,1.5682e-05,-3.8e-07,0.0,0 STARLINK-3863,1 52465U 22049Q   24192.57566678 -.00000038  00000-0  15682-4 0  9995,2 52465  53.2170 254.5640 0001472  87.3793 272.7367 15.08846377120735,6917.861,95.437,540.744,538.708,0.0
52465.0,STARLINK-3863,PAYLOAD,2024-07-11 10:28:58,15.08843222,0.0001604,53.217,250.6968,100.1441,259.9732,4.9376e-05,4.98e-06,0.0,0 STARLINK-3863,1 52465U 22049Q   24193.43678704  .00000498  00000-0  49376-4 0  9991,2 52465  53.2170 250.6968 0001604 100.1441 259.9732 15.08843222120869,6917.871,95.437,540.845,538.626,0.0
52465.0,STARLINK-3863,PAYLOAD,2024-07-12 03:58:13,15.08839131,0.0001643,53.2173,247.426,99.4616,260.6562,4.7231e-05,4.64e-06,0.0,0 STARLINK-3863,1 52465U 22049Q   24194.16543052  .00000464  00000-0  47231-4 0  9990,2 52465  53.2173 247.4260 0001643  99.4616 260.6562 15.08839131121133,6917.883,95.438,540.885,538.611,0.0
52465.0,STARLINK-3863,PAYLOAD,2024-07-12 10:19:45,15.08843426,0.0001522,53.2174,246.2373,93.6821,266.4345,4.4132e-05,4.14e-06,0.0,0 STARLINK-3863,1 52465U 22049Q   24194.43038804  .00000414  00000-0  44132-4 0  9996,2 52465  53.2174 246.2373 0001522  93.6821 266.4345 15.08843426121018,6917.87,95.437,540.788,538.682,0.0
52465.0,STARLINK-3863,PAYLOAD,2024-07-13 10:10:32,15.08841103,0.0001457,53.2168,241.7794,97.1908,262.925,3.7362e-05,3.07e-06,0.0,0 STARLINK-3863,1 52465U 22049Q   24195.42399034  .00000307  00000-0  37362-4 0  9999,2 52465  53.2168 241.7794 0001457  97.1908 262.9250 15.08841103121320,6917.877,95.437,540.75,538.734,0.0
52465.0,STARLINK-3863,PAYLOAD,2024-07-13 13:21:18,15.0884238,0.0001457,53.2166,241.1842,96.4495,263.6663,4.7978e-05,4.76e-06,0.0,0 STARLINK-3863,1 52465U 22049Q   24195.55646924  .00000476  00000-0  47978-4 0  9997,2 52465  53.2166 241.1842 0001457  96.4495 263.6663 15.08842380121187,6917.873,95.437,540.746,538.73,0.0
52465.0,STARLINK-3863,PAYLOAD,2024-07-13 19:42:51,15.08840962,0.000128,53.2156,239.993,92.6922,267.4217,6.0198e-06,-1.92e-06,0.0,0 STARLINK-3863,1 52465U 22049Q   24195.82143123 -.00000192  00000-0  60198-5 0  9996,2 52465  53.2156 239.9930 0001280  92.6922 267.4217 15.08840962121222,6917.877,95.437,540.628,538.857,0.0
52465.0,STARLINK-3863,PAYLOAD,2024-07-14 11:36:43,15.08838303,0.000132,53.2166,237.0209,95.3014,264.8129,3.8167e-05,3.2e-06,0.0,0 STARLINK-3863,1 52465U 22049Q   24196.48383441  .00000320  00000-0  38167-4 0  9990,2 52465  53.2166 237.0209 0001320  95.3014 264.8129 15.08838303121485,6917.886,95.438,540.664,538.837,0.0
52465.0,STARLINK-3863,PAYLOAD,2024-07-14 19:33:39,15.08828941,0.0001355,53.2165,235.5341,96.6384,263.4763,0.00011686,1.572e-05,0.0,0 STARLINK-3863,1 52465U 22049Q   24196.81503959  .00001572  00000-0  11686-3 0  9991,2 52465  53.2165 235.5341 0001355  96.6384 263.4763 15.08828941121538,6917.914,95.438,540.717,538.842,0.0
52465.0,STARLINK-3863,PAYLOAD,2024-07-15 11:27:30,15.0884172,0.0001331,53.2162,232.5601,94.8253,265.2891,6.2977e-05,7.15e-06,0.0,0 STARLINK-3863,1 52465U 22049Q   24197.47743390  .00000715  00000-0  62977-4 0  9997,2 52465  53.2162 232.5601 0001331  94.8253 265.2891 15.08841720121633,6917.875,95.437,540.661,538.819,0.0
52465.0,STARLINK-3863,PAYLOAD,2024-07-16 11:18:17,15.08841401,0.0001327,53.2162,228.0995,89.8697,270.2448,7.3831e-05,8.87e-06,0.0,0 STARLINK-3863,1 52465U 22049Q   24198.47103521  .00000887  00000-0  73831-4 0  9995,2 52465  53.2162 228.0995 0001327  89.8697 270.2448 15.08841401121629,6917.876,95.437,540.659,538.823,0.0
52465.0,STARLINK-3863,PAYLOAD,2024-07-17 01:36:45,15.08841727,0.0001433,53.2165,225.4225,87.5755,272.5402,7.8007e-05,9.54e-06,0.0,0 STARLINK-3863,1 52465U 22049Q   24199.06719515  .00000954  00000-0  78007-4 0  9992,2 52465  53.2165 225.4225 0001433  87.5755 272.5402 15.08841727121870,6917.875,95.437,540.731,538.749,0.0
52465.0,STARLINK-3863,PAYLOAD,2024-07-17 07:58:18,15.08843342,0.0001389,53.2162,224.2331,91.1512,268.9639,8.8422e-05,1.12e-05,0.0,0 STARLINK-3863,1 52465U 22049Q   24199.33215338  .00001120  00000-0  88422-4 0  9994,2 52465  53.2162 224.2331 0001389  91.1512 268.9639 15.08843342121757,6917.87,95.437,540.696,538.774,0.0
52465.0,STARLINK-3863,PAYLOAD,2024-07-18 07:49:05,15.08838491,0.0001305,53.2153,219.7727,87.667,272.4472,5.3034e-06,-2.03e-06,0.0,0 STARLINK-3863,1 52465U 22049Q   24200.32576000 -.00000203  00000-0  53034-5 0  9996,2 52465  53.2153 219.7727 0001305  87.6670 272.4472 15.08838491122067,6917.885,95.438,540.653,538.847,0.0
